{
  "schema_version": 8,
  "id": "builtin-solar-system",
  "name": "Solar System",
  "epoch": "2026-06-14 00:00:00 TDB, JPL Horizons, solar-system barycentric",
  "description": "Built-in Solar System preset using SI units and JPL Horizons solar-system barycentric state vectors, parent-centered osculating orbital metadata, and preserved local physical metadata.",
  "groups": [
    {
      "id": "solar-system-group",
      "name": "Solar System",
      "kind": "planetary_system",
      "body_ids": [
        "sun"
      ]
    }
  ],
  "bodies": [
    {
      "id": "saturn",
      "name": "Saturn",
      "kind": "planet",
      "mass_kg": 5.6834e+26,
      "radius_m": 58232000.0,
      "position_m": [
        1404055459337.908,
        173868494150.4284,
        -58926841729.18792
      ],
      "velocity_mps": [
        -1717.146648095935,
        9565.141604578006,
        -97.97526811381773
      ],
      "color": "#d7c27d",
      "parent_id": "sun",
      "orbit": {
        "semi_major_axis_m": 1427150890358.8816,
        "orbital_period_s": 929751388.0579281,
        "eccentricity": 0.05511036800441806,
        "inclination_deg": 2.487904006399887,
        "longitude_of_ascending_node_deg": 113.6322938441676,
        "argument_of_periapsis_deg": 338.7518056606885,
        "mean_anomaly_deg": 280.9899427912153,
        "epoch": "2026-06-14 00:00:00 TDB",
        "reference_plane": "J2000 ecliptic",
        "approximation_notes": "Horizons parent-centered osculating elements at the preset epoch; the committed Cartesian state remains the simulation seed."
      },
      "data_source": {
        "source_name": "JPL Horizons",
        "source_url": "https://ssd.jpl.nasa.gov/api/horizons.api?format=json&COMMAND=%27699%27&OBJ_DATA=NO&MAKE_EPHEM=YES&EPHEM_TYPE=ELEMENTS&CENTER=%27500%4010%27&TLIST=%272026-06-14+00%3A00%3A00%27&TLIST_TYPE=CAL&TIME_TYPE=TDB&OUT_UNITS=AU-D&CSV_FORMAT=YES&ELM_LABELS=NO",
        "catalog_id": "699",
        "retrieved_at": "2026-06-19",
        "citation": "JPL Horizons osculating elements and state vectors."
      }
    },
    {
      "id": "uranus",
      "name": "Uranus",
      "kind": "planet",
      "mass_kg": 8.681e+25,
      "radius_m": 25362000.0,
      "position_m": [
        1392945274898.0159,
        2555475671223.202,
        -8555058303.131342
      ],
      "velocity_mps": [
        -6029.582546399094,
        2941.887623163757,
        89.3406056315469
      ],
      "color": "#87d6d1",
      "parent_id": "sun",
      "orbit": {
        "semi_major_axis_m": 2882896300425.564,
        "orbital_period_s": 2669673204.6749935,
        "eccentricity": 0.04729150242068801,
        "inclination_deg": 0.7754942643885968,
        "longitude_of_ascending_node_deg": 73.97139113716196,
        "argument_of_periapsis_deg": 92.10423650793452,
        "mean_anomaly_deg": 260.6200050273399,
        "epoch": "2026-06-14 00:00:00 TDB",
        "reference_plane": "J2000 ecliptic",
        "approximation_notes": "Horizons parent-centered osculating elements at the preset epoch; the committed Cartesian state remains the simulation seed."
      },
      "data_source": {
        "source_name": "JPL Horizons",
        "source_url": "https://ssd.jpl.nasa.gov/api/horizons.api?format=json&COMMAND=%27799%27&OBJ_DATA=NO&MAKE_EPHEM=YES&EPHEM_TYPE=ELEMENTS&CENTER=%27500%4010%27&TLIST=%272026-06-14+00%3A00%3A00%27&TLIST_TYPE=CAL&TIME_TYPE=TDB&OUT_UNITS=AU-D&CSV_FORMAT=YES&ELM_LABELS=NO",
        "catalog_id": "799",
        "retrieved_at": "2026-06-19",
        "citation": "JPL Horizons osculating elements and state vectors."
      }
    },
    {
      "id": "neptune",
      "name": "Neptune",
      "kind": "planet",
      "mass_kg": 1.02413e+26,
      "radius_m": 24622000.0,
      "position_m": [
        4465848740570.349,
        154250163575.77432,
        -106096572172.2432
      ],
      "velocity_mps": [
        -223.1864305183416,
        5463.6895582390725,
        -108.0629239870325
      ],
      "color": "#4d75d9",
      "parent_id": "sun",
      "orbit": {
        "semi_major_axis_m": 4499589005622.51,
        "orbital_period_s": 5205616115.672687,
        "eccentricity": 0.01015084248774932,
        "inclination_deg": 1.775430091313966,
        "longitude_of_ascending_node_deg": 131.9883115310724,
        "argument_of_periapsis_deg": 280.2261347727232,
        "mean_anomaly_deg": 310.6769641133678,
        "epoch": "2026-06-14 00:00:00 TDB",
        "reference_plane": "J2000 ecliptic",
        "approximation_notes": "Horizons parent-centered osculating elements at the preset epoch; the committed Cartesian state remains the simulation seed."
      },
      "data_source": {
        "source_name": "JPL Horizons",
        "source_url": "https://ssd.jpl.nasa.gov/api/horizons.api?format=json&COMMAND=%27899%27&OBJ_DATA=NO&MAKE_EPHEM=YES&EPHEM_TYPE=ELEMENTS&CENTER=%27500%4010%27&TLIST=%272026-06-14+00%3A00%3A00%27&TLIST_TYPE=CAL&TIME_TYPE=TDB&OUT_UNITS=AU-D&CSV_FORMAT=YES&ELM_LABELS=NO",
        "catalog_id": "899",
        "retrieved_at": "2026-06-19",
        "citation": "JPL Horizons osculating elements and state vectors."
      }
    },
    {
      "id": "pluto",
      "name": "Pluto",
      "kind": "dwarf planet",
      "mass_kg": 1.303e+22,
      "radius_m": 1188300.0,
      "position_m": [
        2942504163239.284,
        -4411609399108.988,
        -379079938031.98553
      ],
      "velocity_mps": [
        4658.428973024263,
        1793.750433219713,
        -1530.495986740084
      ],
      "color": "#c9b39a",
      "parent_id": "sun",
      "orbit": {
        "semi_major_axis_m": 5824126260132.851,
        "orbital_period_s": 7666024836.451794,
        "eccentricity": 0.2447416742495381,
        "inclination_deg": 17.08239632223129,
        "longitude_of_ascending_node_deg": 110.2569744693702,
        "argument_of_periapsis_deg": 111.0856950945227,
        "mean_anomaly_deg": 56.01116303954694,
        "epoch": "2026-06-14 00:00:00 TDB",
        "reference_plane": "J2000 ecliptic",
        "approximation_notes": "Horizons parent-centered osculating elements at the preset epoch; the committed Cartesian state remains the simulation seed."
      },
      "data_source": {
        "source_name": "JPL Horizons",
        "source_url": "https://ssd.jpl.nasa.gov/api/horizons.api?format=json&COMMAND=%27999%27&OBJ_DATA=NO&MAKE_EPHEM=YES&EPHEM_TYPE=ELEMENTS&CENTER=%27500%4010%27&TLIST=%272026-06-14+00%3A00%3A00%27&TLIST_TYPE=CAL&TIME_TYPE=TDB&OUT_UNITS=AU-D&CSV_FORMAT=YES&ELM_LABELS=NO",
        "catalog_id": "999",
        "retrieved_at": "2026-06-19",
        "citation": "JPL Horizons osculating elements and state vectors."
      }
    },
    {
      "id": "ceres",
      "name": "Ceres",
      "kind": "dwarf planet",
      "mass_kg": 9.38392e+20,
      "radius_m": 469700.0,
      "position_m": [
        204548970333.0441,
        357063143249.08014,
        -26390223312.050583
      ],
      "velocity_mps": [
        -15880.78896427128,
        7683.558931796014,
        3170.712265521805
      ],
      "color": "#9c9b94",
      "parent_id": "sun",
      "orbit": {
        "semi_major_axis_m": 413721795720.43884,
        "orbital_period_s": 145139844.29136676,
        "eccentricity": 0.0796942676985242,
        "inclination_deg": 10.58802232128676,
        "longitude_of_ascending_node_deg": 80.24863818505895,
        "argument_of_periapsis_deg": 73.29256677285274,
        "mean_anomaly_deg": 275.4927328107114,
        "epoch": "2026-06-14 00:00:00 TDB",
        "reference_plane": "J2000 ecliptic",
        "approximation_notes": "Horizons parent-centered osculating elements at the preset epoch; the committed Cartesian state remains the simulation seed."
      },
      "data_source": {
        "source_name": "JPL Horizons",
        "source_url": "https://ssd.jpl.nasa.gov/api/horizons.api?format=json&COMMAND=%271%3B%27&OBJ_DATA=NO&MAKE_EPHEM=YES&EPHEM_TYPE=ELEMENTS&CENTER=%27500%4010%27&TLIST=%272026-06-14+00%3A00%3A00%27&TLIST_TYPE=CAL&TIME_TYPE=TDB&OUT_UNITS=AU-D&CSV_FORMAT=YES&ELM_LABELS=NO",
        "catalog_id": "1;",
        "retrieved_at": "2026-06-19",
        "citation": "JPL Horizons osculating elements and state vectors."
      }
    },
    {
      "id": "moon",
      "name": "Moon",
      "kind": "moon",
      "mass_kg": 7.342e+22,
      "radius_m": 1737400.0,
      "position_m": [
        -19682959171.05921,
        -151148040191.5144,
        56372653.59078348
      ],
      "velocity_mps": [
        28066.10650942487,
        -3525.136655851063,
        -9.389611524601715
      ],
      "color": "#c8c8c8",
      "parent_id": "earth",
      "orbit": {
        "semi_major_axis_m": 385631253.1287209,
        "orbital_period_s": 2368725.269043114,
        "eccentricity": 0.07400726454143226,
        "inclination_deg": 5.0312105821534,
        "longitude_of_ascending_node_deg": 332.0683200270171,
        "argument_of_periapsis_deg": 110.9944408295796,
        "mean_anomaly_deg": 345.7335249272253,
        "epoch": "2026-06-14 00:00:00 TDB",
        "reference_plane": "J2000 ecliptic",
        "approximation_notes": "Horizons parent-centered osculating elements at the preset epoch; the committed Cartesian state remains the simulation seed."
      },
      "data_source": {
        "source_name": "JPL Horizons",
        "source_url": "https://ssd.jpl.nasa.gov/api/horizons.api?format=json&COMMAND=%27301%27&OBJ_DATA=NO&MAKE_EPHEM=YES&EPHEM_TYPE=ELEMENTS&CENTER=%27500%40399%27&TLIST=%272026-06-14+00%3A00%3A00%27&TLIST_TYPE=CAL&TIME_TYPE=TDB&OUT_UNITS=AU-D&CSV_FORMAT=YES&ELM_LABELS=NO",
        "catalog_id": "301",
        "retrieved_at": "2026-06-19",
        "citation": "JPL Horizons osculating elements and state vectors."
      }
    }
  ]
}
